GLOBALSTAR M045         
1 25676U 99019A   25199.48391023 -.00000066  00000+0  24540-3 0  9990
2 25676  51.9936 216.0678 0000363 252.5753 260.2350 12.27064183197236
GLOBALSTAR M019         
1 25677U 99019B   25199.46878347 -.00000021  00000+0  71675-3 0  9990
2 25677  51.9902 348.6771 0001630  56.8794 342.3647 12.13874070188942
GLOBALSTAR M044         
1 25678U 99019C   25199.57731617 -.00000098  00000+0 -19435-3 0  9992
2 25678  51.9987 303.6658 0006600 104.2071 269.0036 11.90254731175065
GLOBALSTAR M042         
1 25679U 99019D   25199.62308714 -.00000071  00000+0  20226-3 0  9997
2 25679  52.0038 322.2112 0002767  18.3773 355.3569 12.22084418189100
GLOBALSTAR M025         
1 25770U 99031A   25199.63704091 -.00000066  00000+0  39088-4 0  9993
2 25770  51.9824  86.4160 0001079 191.8981 179.7762 11.22560409485243
GLOBALSTAR M049         
1 25771U 99031B   25199.44799233 -.00000090  00000+0 -84644-3 0  9990
2 25771  51.9868 123.1884 0003339  53.3862 306.7241 11.12117047120903
GLOBALSTAR M047         
1 25772U 99031C   25199.49851075 -.00000063  00000+0  17234-3 0  9999
2 25772  51.9827 117.0515 0016734 318.4975  41.4559 11.31929069474650
GLOBALSTAR M052         
1 25773U 99031D   25199.53721354 -.00000070  00000+0 -13200-3 0  9999
2 25773  51.9832 231.2211 0002945 227.2129 288.5621 11.15060215482009
